NORAD_CAT_ID,OBJECT_NAME,OBJECT_TYPE,EPOCH,MEAN_MOTION,ECCENTRICITY,INCLINATION,RA_OF_ASC_NODE,ARG_OF_PERICENTER,MEAN_ANOMALY,BSTAR,MEAN_MOTION_DOT,MEAN_MOTION_DDOT,TLE_LINE0,TLE_LINE1,TLE_LINE2,SEMIMAJOR_AXIS,PERIOD,APOGEE,PERIGEE,DECAYED
53711.0,STARLINK-4627,PAYLOAD,2022-11-17 22:00:00,15.27946002,0.0001272,53.2164,270.6802,65.2943,21.737,-0.050114,-0.01268172,0.0,0 STARLINK-4627,1 53711U 22107M   22321.91667824 -.01268172  00000-0 -50114-1 0  9993,2 53711  53.2164 270.6802 0001272  65.2943  21.7370 15.27946002  1306,6860.09,94.244,482.828,481.083,0.0
53711.0,STARLINK-4627,PAYLOAD,2022-11-18 14:00:01,15.26211823,0.000139,53.2165,267.6031,66.7636,87.1874,-0.05296,-0.01270787,0.0,0 STARLINK-4627,1 53711U 22107M   22322.58334491 -.01270787  00000-0 -52960-1 0  9994,2 53711  53.2165 267.6031 0001390  66.7636  87.1874 15.26211823  1303,6865.286,94.351,488.105,486.197,0.0
53711.0,STARLINK-4627,PAYLOAD,2022-11-18 22:00:00,15.25350058,0.0001395,53.2165,266.0669,81.1529,104.6893,-0.0546309999999999,-0.01276538,0.0,0 STARLINK-4627,1 53711U 22107M   22322.91667824 -.01276538  00000-0 -54631-1 0  9997,2 53711  53.2165 266.0669 0001395  81.1529 104.6893 15.25350058  1309,6867.871,94.405,490.695,488.778,0.0
53711.0,STARLINK-4627,PAYLOAD,2022-11-19 14:00:01,15.23615466,0.0001246,53.2166,263.0019,77.7683,168.7366,-0.057743,-0.0128024,0.0,0 STARLINK-4627,1 53711U 22107M   22323.58334491 -.01280240  00000-0 -57743-1 0  9994,2 53711  53.2166 263.0019 0001246  77.7683 168.7366 15.23615466  1304,6873.083000000001,94.512,495.804,494.092,0.0
53711.0,STARLINK-4627,PAYLOAD,2022-11-19 22:00:00,15.22749146,0.0001248,53.2164,261.4716,87.4776,187.7918,-0.05923,-0.01279714,0.0,0 STARLINK-4627,1 53711U 22107M   22323.91667824 -.01279714  00000-0 -59230-1 0  9997,2 53711  53.2164 261.4716 0001248  87.4776 187.7918 15.22749146 12017,6875.69,94.566,498.413,496.697,0.0
53711.0,STARLINK-4627,PAYLOAD,2022-11-20 14:00:01,15.20991134,0.0001107,53.2165,258.4188,78.3377,251.3485,-0.060987,-0.01253147,0.0,0 STARLINK-4627,1 53711U 22107M   22324.58334491 -.01253147  00000-0 -60987-1 0  9995,2 53711  53.2165 258.4188 0001107  78.3377 251.3485 15.20991134 12119,6880.986999999999,94.675,503.61300000000006,502.09,0.0
53711.0,STARLINK-4627,PAYLOAD,2022-11-20 22:00:00,15.201004199999998,0.0001181,53.2177,256.8963,78.5938,276.7404,-0.060884,-0.01221497,0.0,0 STARLINK-4627,1 53711U 22107M   22324.91667824 -.01221497  00000-0 -60884-1 0  9990,2 53711  53.2177 256.8963 0001181  78.5938 276.7404 15.20100420  1303,6883.674,94.731,506.352,504.726,0.0
53711.0,STARLINK-4627,PAYLOAD,2022-11-21 14:00:01,15.18391301,0.000111,53.2165,253.8541,73.6331,329.8344,-0.066102,-0.01258275,0.0,0 STARLINK-4627,1 53711U 22107M   22325.58334491 -.01258275  00000-0 -66102-1 0  9998,2 53711  53.2165 253.8541 0001110  73.6331 329.8344 15.18391301  1304,6888.839,94.837,511.469,509.939,0.0
53711.0,STARLINK-4627,PAYLOAD,2022-11-21 22:00:00,15.17528904,0.0001213,53.2164,252.3366,82.8226,343.1507,-0.06824,-0.01266205,0.0,0 STARLINK-4627,1 53711U 22107M   22325.91667824 -.01266205  00000-0 -68240-1 0  9991,2 53711  53.2164 252.3366 0001213  82.8226 343.1507 15.17528904 12314,6891.449000000001,94.891,514.15,512.4780000000002,0.0
53711.0,STARLINK-4627,PAYLOAD,2022-11-22 14:00:01,15.15783771,0.000123,53.2167,249.3076,74.9975,32.931,-0.070953,-0.01253272,0.0,0 STARLINK-4627,1 53711U 22107M   22326.58335648 -.01253272  00000-0 -70953-1 0  9995,2 53711  53.2167 249.3076 0001230  74.9975  32.9310 15.15783771 12412,6896.736999999999,95.0,519.45,517.754,0.0
53711.0,STARLINK-4627,PAYLOAD,2022-11-22 22:00:00,15.14935433,0.0001306,53.2163,247.7962,84.2533,42.9809,-0.074331,-0.01279105,0.0,0 STARLINK-4627,1 53711U 22107M   22326.91667824 -.01279105  00000-0 -74331-1 0  9993,2 53711  53.2163 247.7962 0001306  84.2533  42.9809 15.14935433  1305,6899.312,95.054,522.078,520.276,0.0
53711.0,STARLINK-4627,PAYLOAD,2022-11-23 14:00:01,15.13152457,0.0001382,53.2171,244.78,78.658,84.2287,-0.073926,-0.0121514,0.0,0 STARLINK-4627,1 53711U 22107M   22327.58334491 -.01215140  00000-0 -73926-1 0  9996,2 53711  53.2171 244.7800 0001382  78.6580  84.2287 15.13152457  1300,6904.73,95.166,527.549,525.641,0.0
53711.0,STARLINK-4627,PAYLOAD,2022-11-23 16:00:00,15.12936801,0.0001351999999999,53.2173,244.4033,86.7481,170.2983,-0.074521,-0.01217297,0.0,0 STARLINK-4627,1 53711U 22107M   22327.66667824 -.01217297  00000-0 -74521-1 0  9991,2 53711  53.2173 244.4033 0001352  86.7481 170.2983 15.12936801 12587,6905.386,95.179,528.185,526.318,0.0
53711.0,STARLINK-4627,PAYLOAD,2022-11-23 22:00:00,15.12318461,0.0001458,53.2163,243.2741,101.1804,77.9393,-0.078788,-0.01260789,0.0,0 STARLINK-4627,1 53711U 22107M   22327.91667824 -.01260789  00000-0 -78788-1 0  9992,2 53711  53.2163 243.2741 0001458 101.1804  77.9393 15.12318461  1309,6907.269,95.218,530.141,528.126,0.0
53711.0,STARLINK-4627,PAYLOAD,2022-11-24 14:00:01,15.10568744,0.0001405,53.2164,240.2694,79.9436,128.5534,-0.081325,-0.01241064,0.0,0 STARLINK-4627,1 53711U 22107M   22328.58334491 -.01241064  00000-0 -81325-1 0  9993,2 53711  53.2164 240.2694 0001405  79.9436 128.5534 15.10568744  1308,6912.601,95.328,535.438,533.495,0.0
53711.0,STARLINK-4627,PAYLOAD,2022-11-24 22:00:00,15.09730072,0.0001485,53.2162,238.7702,103.5403,118.0635,-0.086208,-0.01298423,0.0,0 STARLINK-4627,1 53711U 22107M   22328.91667824 -.01298423  00000-0 -86208-1 0  9995,2 53711  53.2162 238.7702 0001485 103.5403 118.0635 15.09730072  1303,6915.161,95.381,538.053,535.999,0.0
53711.0,STARLINK-4627,PAYLOAD,2022-11-25 14:00:01,15.07799668,0.0001303,53.2171,235.7777,72.7506,172.0115,-0.04778,-0.00689889,0.0,0 STARLINK-4627,1 53711U 22107M   22329.58334491 -.00689889  00000-0 -47780-1 0  9991,2 53711  53.2171 235.7777 0001303  72.7506 172.0115 15.07799668 12873,6921.062,95.503,543.8290000000002,542.025,0.0
53711.0,STARLINK-4627,PAYLOAD,2022-11-25 22:00:00,15.07360977,0.0001463,53.2111,234.2806,86.63,168.1101,-0.014154,-0.0021037,0.0,0 STARLINK-4627,1 53711U 22107M   22329.91667824 -.00210370  00000-0 -14154-1 0  9991,2 53711  53.2111 234.2806 0001463  86.6300 168.1101 15.07360977 12921,6922.405,95.531,545.283,543.257,0.0
53711.0,STARLINK-4627,PAYLOAD,2022-11-26 06:00:00,15.07211849,0.0001551,53.2105,232.787,79.9613,184.5208,0.0012397,0.00018641,0.0,0 STARLINK-4627,1 53711U 22107M   22330.25001157  .00018641  00000-0  12397-2 0  9994,2 53711  53.2105 232.7870 0001551  79.9613 184.5208 15.07211849 12976,6922.861,95.541,545.8,543.653,0.0
53711.0,STARLINK-4627,PAYLOAD,2022-11-26 14:00:01,15.07205498,0.0001456,53.2126,231.2923,88.5839,185.5479,0.0014831,0.00022364,0.0,0 STARLINK-4627,1 53711U 22107M   22330.58334491  .00022364  00000-0  14831-2 0  9992,2 53711  53.2126 231.2923 0001456  88.5839 185.5479 15.07205498  1301,6922.880999999999,95.541,545.754,543.738,0.0
53711.0,STARLINK-4627,PAYLOAD,2022-11-26 22:00:00,15.07213947,0.0001438,53.2138,229.8007,84.0972,199.6804,-0.0018862,-0.00028886,0.0,0 STARLINK-4627,1 53711U 22107M   22330.91667824 -.00028886  00000-0 -18862-2 0  9993,2 53711  53.2138 229.8007 0001438  84.0972 199.6804 15.07213947 13072,6922.855,95.541,545.716,543.725,0.0
53711.0,STARLINK-4627,PAYLOAD,2022-11-27 14:00:01,15.07142086,0.0001194,53.2146,226.8143,87.2921,215.7305,0.0035249,0.00053689,0.0,0 STARLINK-4627,1 53711U 22107M   22331.58334491  .00053689  00000-0  35249-2 0  9993,2 53711  53.2146 226.8143 0001194  87.2921 215.7305 15.07142086  1301,6923.075,95.545,545.7669999999998,544.113,0.0
53711.0,STARLINK-4627,PAYLOAD,2022-11-27 22:00:00,15.0718474,0.0001271,53.2146,225.3229,81.4031,231.1948,-0.0010731,-0.00016571,0.0,0 STARLINK-4627,1 53711U 22107M   22331.91667824 -.00016571  00000-0 -10731-2 0  9999,2 53711  53.2146 225.3229 0001271  81.4031 231.1948 15.07184740  1302,6922.944,95.542,545.689,543.93,0.0
53711.0,STARLINK-4627,PAYLOAD,2022-11-28 00:00:00,15.07178818,0.0001311,53.2146,224.9502,78.5203,326.4789,-0.00035769,-5.720000000000002e-05,0.0,0 STARLINK-4627,1 53711U 22107M   22332.00001157 -.00005720  00000-0 -35769-3 0  9994,2 53711  53.2146 224.9502 0001311  78.5203 326.4789 15.07178818 13239,6922.9630000000025,95.543,545.735,543.92,0.0
53711.0,STARLINK-4627,PAYLOAD,2022-11-28 14:00:01,15.07168419,0.0001222,53.2146,222.3364,88.1338,243.682,0.003816,0.00058225,0.0,0 STARLINK-4627,1 53711U 22107M   22332.58334491  .00058225  00000-0  38160-2 0  9990,2 53711  53.2146 222.3364 0001222  88.1338 243.6820 15.07168419 13326,6922.994000000002,95.543,545.705,544.013,0.0
53711.0,STARLINK-4627,PAYLOAD,2022-11-28 22:00:01,15.07210713,0.0001283,53.2147,220.845,81.1617,260.3254,-0.0011058,-0.00017078,0.0,0 STARLINK-4627,1 53711U 22107M   22332.91668981 -.00017078  00000-0 -11058-2 0  9991,2 53711  53.2147 220.8450 0001283  81.1617 260.3254 15.07210713  1303,6922.865,95.541,545.618,543.842,0.0
53711.0,STARLINK-4627,PAYLOAD,2022-11-29 06:00:00,15.0721479,0.0001262,53.2143,219.3526,76.6796,274.3719,-0.00017439,-2.938e-05,0.0,0 STARLINK-4627,1 53711U 22107M   22333.25001157 -.00002938  00000-0 -17439-3 0  9994,2 53711  53.2143 219.3526 0001262  76.6796 274.3719 15.07214790 13426,6922.852,95.54,545.591,543.844,0.0
53711.0,STARLINK-4627,PAYLOAD,2022-11-29 14:00:01,15.07201665,0.0001278,53.2145,217.8584,89.4504,271.311,0.00068217,0.00010115,0.0,0 STARLINK-4627,1 53711U 22107M   22333.58335648  .00010115  00000-0  68217-3 0  9999,2 53711  53.2145 217.8584 0001278  89.4504 271.3110 15.07201665  1315,6922.893,95.541,545.6419999999998,543.873,0.0
53711.0,STARLINK-4627,PAYLOAD,2022-11-29 22:00:00,15.07204693,0.0001416,53.2146,216.3672,82.8122,287.5196,-0.0010732,-0.00016582,0.0,0 STARLINK-4627,1 53711U 22107M   22333.91667824 -.00016582  00000-0 -10732-2 0  9994,2 53711  53.2146 216.3672 0001416  82.8122 287.5196 15.07204693  1301,6922.8830000000025,95.541,545.729,543.768,0.0
